CCSDS_OMM_VERS = 2.0
CREATION_DATE  = 
ORIGINATOR     = 

OBJECT_NAME    = STARLINK-35323
OBJECT_ID      = 2025-235P
CENTER_NAME    = EARTH
REF_FRAME      = TEME
TIME_SYSTEM    = UTC
MEAN_ELEMENT_THEORY = SGP/SGP4

EPOCH          = 2025-11-13T19:30:53.003808
MEAN_MOTION    = 15.49347879
ECCENTRICITY   = .0001165
INCLINATION    = 53.1597
RA_OF_ASC_NODE = 65.3862
ARG_OF_PERICENTER = 82.3409
MEAN_ANOMALY   = 277.7733

EPHEMERIS_TYPE = 0
CLASSIFICATION_TYPE = U
NORAD_CAT_ID   = 66071
ELEMENT_SET_NO = 999
REV_AT_EPOCH   = 515
BSTAR          = .36164E-2
MEAN_MOTION_DOT = .206367E-2
MEAN_MOTION_DDOT = 0

CCSDS_OMM_VERS = 2.0
CREATION_DATE  = 
ORIGINATOR     = 

OBJECT_NAME    = STARLINK-35299
OBJECT_ID      = 2025-235Q
CENTER_NAME    = EARTH
REF_FRAME      = TEME
TIME_SYSTEM    = UTC
MEAN_ELEMENT_THEORY = SGP/SGP4

EPOCH          = 2025-11-13T20:00:01.999008
MEAN_MOTION    = 15.39514420
ECCENTRICITY   = .0001219
INCLINATION    = 53.1603
RA_OF_ASC_NODE = 65.4690
ARG_OF_PERICENTER = 60.6576
MEAN_ANOMALY   = 322.4670

EPHEMERIS_TYPE = 0
CLASSIFICATION_TYPE = U
NORAD_CAT_ID   = 66072
ELEMENT_SET_NO = 999
REV_AT_EPOCH   = 523
BSTAR          = .21857E-2
MEAN_MOTION_DOT = .87734E-3
MEAN_MOTION_DDOT = 0

CCSDS_OMM_VERS = 2.0
CREATION_DATE  = 
ORIGINATOR     = 

OBJECT_NAME    = STARLINK-35274
OBJECT_ID      = 2025-235R
CENTER_NAME    = EARTH
REF_FRAME      = TEME
TIME_SYSTEM    = UTC
MEAN_ELEMENT_THEORY = SGP/SGP4

EPOCH          = 2025-11-13T20:00:01.999008
MEAN_MOTION    = 15.39739469
ECCENTRICITY   = .0001171
INCLINATION    = 53.1601
RA_OF_ASC_NODE = 65.4176
ARG_OF_PERICENTER = 81.8537
MEAN_ANOMALY   = 327.0083

EPHEMERIS_TYPE = 0
CLASSIFICATION_TYPE = U
NORAD_CAT_ID   = 66073
ELEMENT_SET_NO = 999
REV_AT_EPOCH   = 523
BSTAR          = -.80401E-2
MEAN_MOTION_DOT = -.31047E-2
MEAN_MOTION_DDOT = 0

CCSDS_OMM_VERS = 2.0
CREATION_DATE  = 
ORIGINATOR     = 

OBJECT_NAME    = STARLINK-35321
OBJECT_ID      = 2025-235S
CENTER_NAME    = EARTH
REF_FRAME      = TEME
TIME_SYSTEM    = UTC
MEAN_ELEMENT_THEORY = SGP/SGP4

EPOCH          = 2025-11-13T20:00:01.999008
MEAN_MOTION    = 15.39621731
ECCENTRICITY   = .0001383
INCLINATION    = 53.1598
RA_OF_ASC_NODE = 65.3654
ARG_OF_PERICENTER = 81.1971
MEAN_ANOMALY   = 353.2966

EPHEMERIS_TYPE = 0
CLASSIFICATION_TYPE = U
NORAD_CAT_ID   = 66074
ELEMENT_SET_NO = 999
REV_AT_EPOCH   = 523
BSTAR          = -.43048E-3
MEAN_MOTION_DOT = -.1758E-3
MEAN_MOTION_DDOT = 0

CCSDS_OMM_VERS = 2.0
CREATION_DATE  = 
ORIGINATOR     = 

OBJECT_NAME    = STARLINK-35131
OBJECT_ID      = 2025-235T
CENTER_NAME    = EARTH
REF_FRAME      = TEME
TIME_SYSTEM    = UTC
MEAN_ELEMENT_THEORY = SGP/SGP4

EPOCH          = 2025-11-13T19:27:37.586016
MEAN_MOTION    = 15.48422377
ECCENTRICITY   = .0001648
INCLINATION    = 53.1597
RA_OF_ASC_NODE = 65.3689
ARG_OF_PERICENTER = 183.6451
MEAN_ANOMALY   = 176.4546

EPHEMERIS_TYPE = 0
CLASSIFICATION_TYPE = U
NORAD_CAT_ID   = 66075
ELEMENT_SET_NO = 999
REV_AT_EPOCH   = 515
BSTAR          = -.15199E-1
MEAN_MOTION_DOT = -.755756E-2
MEAN_MOTION_DDOT = 0

CCSDS_OMM_VERS = 2.0
CREATION_DATE  = 
ORIGINATOR     = 

OBJECT_NAME    = STARLINK-34801
OBJECT_ID      = 2025-235U
CENTER_NAME    = EARTH
REF_FRAME      = TEME
TIME_SYSTEM    = UTC
MEAN_ELEMENT_THEORY = SGP/SGP4

EPOCH          = 2025-11-13T20:00:01.999008
MEAN_MOTION    = 15.41597442
ECCENTRICITY   = .0001579
INCLINATION    = 53.1594
RA_OF_ASC_NODE = 65.3172
ARG_OF_PERICENTER = 66.9136
MEAN_ANOMALY   = 31.8494

EPHEMERIS_TYPE = 0
CLASSIFICATION_TYPE = U
NORAD_CAT_ID   = 66076
ELEMENT_SET_NO = 999
REV_AT_EPOCH   = 523
BSTAR          = -.54884E-1
MEAN_MOTION_DOT = -.2078801E-1
MEAN_MOTION_DDOT = 0

CCSDS_OMM_VERS = 2.0
CREATION_DATE  = 
ORIGINATOR     = 

OBJECT_NAME    = STARLINK-35129
OBJECT_ID      = 2025-235V
CENTER_NAME    = EARTH
REF_FRAME      = TEME
TIME_SYSTEM    = UTC
MEAN_ELEMENT_THEORY = SGP/SGP4

EPOCH          = 2025-11-13T20:00:01.999008
MEAN_MOTION    = 15.44635677
ECCENTRICITY   = .0001237
INCLINATION    = 53.1594
RA_OF_ASC_NODE = 65.2831
ARG_OF_PERICENTER = 56.6366
MEAN_ANOMALY   = 59.3303

EPHEMERIS_TYPE = 0
CLASSIFICATION_TYPE = U
NORAD_CAT_ID   = 66077
ELEMENT_SET_NO = 999
REV_AT_EPOCH   = 523
BSTAR          = -.48256E-1
MEAN_MOTION_DOT = -.2032298E-1
MEAN_MOTION_DDOT = 0

CCSDS_OMM_VERS = 2.0
CREATION_DATE  = 
ORIGINATOR     = 

OBJECT_NAME    = STARLINK-35116
OBJECT_ID      = 2025-235W
CENTER_NAME    = EARTH
REF_FRAME      = TEME
TIME_SYSTEM    = UTC
MEAN_ELEMENT_THEORY = SGP/SGP4

EPOCH          = 2025-11-13T19:26:25.969056
MEAN_MOTION    = 15.49305165
ECCENTRICITY   = .0001366
INCLINATION    = 53.1596
RA_OF_ASC_NODE = 65.3630
ARG_OF_PERICENTER = 113.7051
MEAN_ANOMALY   = 246.4101

EPHEMERIS_TYPE = 0
CLASSIFICATION_TYPE = U
NORAD_CAT_ID   = 66078
ELEMENT_SET_NO = 999
REV_AT_EPOCH   = 515
BSTAR          = .2249E-2
MEAN_MOTION_DOT = .126662E-2
MEAN_MOTION_DDOT = 0

CCSDS_OMM_VERS = 2.0
CREATION_DATE  = 
ORIGINATOR     = 

OBJECT_NAME    = STARLINK-35402
OBJECT_ID      = 2025-235X
CENTER_NAME    = EARTH
REF_FRAME      = TEME
TIME_SYSTEM    = UTC
MEAN_ELEMENT_THEORY = SGP/SGP4

EPOCH          = 2025-11-13T19:25:56.528256
MEAN_MOTION    = 15.49287455
ECCENTRICITY   = .0001418
INCLINATION    = 53.1594
RA_OF_ASC_NODE = 65.3606
ARG_OF_PERICENTER = 118.1866
MEAN_ANOMALY   = 241.9286

EPHEMERIS_TYPE = 0
CLASSIFICATION_TYPE = U
NORAD_CAT_ID   = 66079
ELEMENT_SET_NO = 999
REV_AT_EPOCH   = 515
BSTAR          = .19615E-2
MEAN_MOTION_DOT = .110107E-2
MEAN_MOTION_DDOT = 0

CCSDS_OMM_VERS = 2.0
CREATION_DATE  = 
ORIGINATOR     = 

OBJECT_NAME    = STARLINK-35325
OBJECT_ID      = 2025-235Y
CENTER_NAME    = EARTH
REF_FRAME      = TEME
TIME_SYSTEM    = UTC
MEAN_ELEMENT_THEORY = SGP/SGP4

EPOCH          = 2025-11-13T19:26:55.663008
MEAN_MOTION    = 15.49290014
ECCENTRICITY   = .0001151
INCLINATION    = 53.1597
RA_OF_ASC_NODE = 65.3654
ARG_OF_PERICENTER = 120.9384
MEAN_ANOMALY   = 239.1739

EPHEMERIS_TYPE = 0
CLASSIFICATION_TYPE = U
NORAD_CAT_ID   = 66080
ELEMENT_SET_NO = 999
REV_AT_EPOCH   = 515
BSTAR          = .14603E-2
MEAN_MOTION_DOT = .81566E-3
MEAN_MOTION_DDOT = 0

CCSDS_OMM_VERS = 2.0
CREATION_DATE  = 
ORIGINATOR     = 

OBJECT_NAME    = STARLINK-35403
OBJECT_ID      = 2025-235Z
CENTER_NAME    = EARTH
REF_FRAME      = TEME
TIME_SYSTEM    = UTC
MEAN_ELEMENT_THEORY = SGP/SGP4

EPOCH          = 2025-11-13T19:24:55.528128
MEAN_MOTION    = 15.49328196
ECCENTRICITY   = .0001399
INCLINATION    = 53.1597
RA_OF_ASC_NODE = 65.3577
ARG_OF_PERICENTER = 121.7501
MEAN_ANOMALY   = 238.3644

EPHEMERIS_TYPE = 0
CLASSIFICATION_TYPE = U
NORAD_CAT_ID   = 66081
ELEMENT_SET_NO = 999
REV_AT_EPOCH   = 515
BSTAR          = .15521E-2
MEAN_MOTION_DOT = .86899E-3
MEAN_MOTION_DDOT = 0

CCSDS_OMM_VERS = 2.0
CREATION_DATE  = 
ORIGINATOR     = 

OBJECT_NAME    = STARLINK-35011
OBJECT_ID      = 2025-235AA
CENTER_NAME    = EARTH
REF_FRAME      = TEME
TIME_SYSTEM    = UTC
MEAN_ELEMENT_THEORY = SGP/SGP4

EPOCH          = 2025-11-13T19:25:26.916384
MEAN_MOTION    = 15.49328029
ECCENTRICITY   = .0001027
INCLINATION    = 53.1602
RA_OF_ASC_NODE = 65.3585
ARG_OF_PERICENTER = 125.5492
MEAN_ANOMALY   = 234.5613

EPHEMERIS_TYPE = 0
CLASSIFICATION_TYPE = U
NORAD_CAT_ID   = 66082
ELEMENT_SET_NO = 999
REV_AT_EPOCH   = 515
BSTAR          = .33614E-2
MEAN_MOTION_DOT = .191274E-2
MEAN_MOTION_DDOT = 0

