STARLINK-35323          
1 66071U 25235P   25317.81311347  .00206367  00000+0  36164-2 0  9998
2 66071  53.1597  65.3862 0001165  82.3409 277.7733 15.49347879  5155
STARLINK-35299          
1 66072U 25235Q   25317.83335647  .00087734  00000+0  21857-2 0  9998
2 66072  53.1603  65.4690 0001219  60.6576 322.4670 15.39514420  5232
STARLINK-35274          
1 66073U 25235R   25317.83335647 -.00310470  00000+0 -80401-2 0  9997
2 66073  53.1601  65.4176 0001171  81.8537 327.0083 15.39739469  5230
STARLINK-35321          
1 66074U 25235S   25317.83335647 -.00017580  00000+0 -43048-3 0  9991
2 66074  53.1598  65.3654 0001383  81.1971 353.2966 15.39621731  5239
STARLINK-35131          
1 66075U 25235T   25317.81085169 -.00755756  00000+0 -15199-1 0  9999
2 66075  53.1597  65.3689 0001648 183.6451 176.4546 15.48422377  5157
STARLINK-34801          
1 66076U 25235U   25317.83335647 -.02078801  00000+0 -54884-1 0  9996
2 66076  53.1594  65.3172 0001579  66.9136  31.8494 15.41597442  5232
STARLINK-35129          
1 66077U 25235V   25317.83335647 -.02032298  00000+0 -48256-1 0  9993
2 66077  53.1594  65.2831 0001237  56.6366  59.3303 15.44635677  5236
STARLINK-35116          
1 66078U 25235W   25317.81002279  .00126662  00000+0  22490-2 0  9992
2 66078  53.1596  65.3630 0001366 113.7051 246.4101 15.49305165  5153
STARLINK-35402          
1 66079U 25235X   25317.80968204  .00110107  00000+0  19615-2 0  9993
2 66079  53.1594  65.3606 0001418 118.1866 241.9286 15.49287455  5151
STARLINK-35325          
1 66080U 25235Y   25317.81036647  .00081566  00000+0  14603-2 0  9991
2 66080  53.1597  65.3654 0001151 120.9384 239.1739 15.49290014  5156
STARLINK-35403          
1 66081U 25235Z   25317.80897602  .00086899  00000+0  15521-2 0  9991
2 66081  53.1597  65.3577 0001399 121.7501 238.3644 15.49328196  5154
STARLINK-35011          
1 66082U 25235AA  25317.80933931  .00191274  00000+0  33614-2 0  9995
2 66082  53.1602  65.3585 0001027 125.5492 234.5613 15.49328029  5159
